start=new Date('2021-10-19T00:00:00.000Z').valueOf();
sats=[{"ARG_OF_PERICENTER":"73.4330","MEAN_ANOMALY":"286.6859","TIME_SYSTEM":"UTC","ELEMENT_SET_NO":"999","NORAD_CAT_ID":"47752","CLASSIFICATION_TYPE":"U","TLE_LINE1":"1 47752U 21017AG  21291.24579413  .00004457  00000-0  31787-3 0  9995","TLE_LINE2":"2 47752  53.0564 204.7612 0001825  73.4330 286.6859 15.06409584 36171","APOAPSIS":"548.448","RCS_SIZE":"MEDIUM","DECAY_DATE":null,"INCLINATION":"53.0564","REV_AT_EPOCH":"3617","OBJECT_ID":"2021-017AG","MEAN_ELEMENT_THEORY":"SGP4","PERIAPSIS":"545.920","RA_OF_ASC_NODE":"204.7612","LAUNCH_DATE":"2021-03-04","CENTER_NAME":"EARTH","EPOCH":"2021-10-18T05:53:56.612832","BSTAR":"0.00031787000000","COUNTRY_CODE":"US","PERIOD":"95.592","SEMIMAJOR_AXIS":"6925.319","MEAN_MOTION":"15.06409584","EPHEMERIS_TYPE":"0","REF_FRAME":"TEME","OBJECT_NAME":"STARLINK-2169","OBJECT_TYPE":"PAYLOAD","GP_ID":"187504809","ECCENTRICITY":"0.00018250","MEAN_MOTION_DDOT":"0.0000000000000","MEAN_MOTION_DOT":"0.00004457","SITE":"AFETR","FILE":"3170121"},{"REV_AT_EPOCH":"3613","OBJECT_ID":"2021-017AH","RCS_SIZE":"LARGE","DECAY_DATE":null,"INCLINATION":"53.0554","APOAPSIS":"548.186","TLE_LINE1":"1 47753U 21017AH  21291.48676320  .00000586  00000-0  58239-4 0  9998","TLE_LINE2":"2 47753  53.0554 208.6619 0001428  73.7755 286.3391 15.06405359 36134","CLASSIFICATION_TYPE":"U","NORAD_CAT_ID":"47753","TIME_SYSTEM":"UTC","ELEMENT_SET_NO":"999","MEAN_ANOMALY":"286.3391","ARG_OF_PERICENTER":"73.7755","SITE":"AFETR","FILE":"3170620","ECCENTRICITY":"0.00014280","GP_ID":"187536698","MEAN_MOTION_DDOT":"0.0000000000000","MEAN_MOTION_DOT":"0.00000586","OBJECT_NAME":"STARLINK-2170","OBJECT_TYPE":"PAYLOAD","MEAN_MOTION":"15.06405359","REF_FRAME":"TEME","EPHEMERIS_TYPE":"0","PERIOD":"95.592","SEMIMAJOR_AXIS":"6925.332","EPOCH":"2021-10-18T11:40:56.340480","BSTAR":"0.00005823900000","COUNTRY_CODE":"US","LAUNCH_DATE":"2021-03-04","CENTER_NAME":"EARTH","MEAN_ELEMENT_THEORY":"SGP4","PERIAPSIS":"546.208","RA_OF_ASC_NODE":"208.6619"},{"SITE":"AFETR","FILE":"3170121","GP_ID":"187503308","ECCENTRICITY":"0.00016660","MEAN_MOTION_DDOT":"0.0000000000000","MEAN_MOTION_DOT":"0.00002319","OBJECT_NAME":"STARLINK-2171","OBJECT_TYPE":"PAYLOAD","MEAN_MOTION":"15.06404439","REF_FRAME":"TEME","EPHEMERIS_TYPE":"0","SEMIMAJOR_AXIS":"6925.335","PERIOD":"95.592","BSTAR":"0.00017452000000","EPOCH":"2021-10-18T06:11:51.573984","COUNTRY_CODE":"US","LAUNCH_DATE":"2021-03-04","CENTER_NAME":"EARTH","MEAN_ELEMENT_THEORY":"SGP4","PERIAPSIS":"546.046","RA_OF_ASC_NODE":"209.6964","REV_AT_EPOCH":"3606","OBJECT_ID":"2021-017AJ","RCS_SIZE":"LARGE","DECAY_DATE":null,"INCLINATION":"53.0554","APOAPSIS":"548.354","TLE_LINE1":"1 47754U 21017AJ  21291.25823581  .00002319  00000-0  17452-3 0  9994","TLE_LINE2":"2 47754  53.0554 209.6964 0001666  71.8132 288.3038 15.06404439 36061","CLASSIFICATION_TYPE":"U","NORAD_CAT_ID":"47754","TIME_SYSTEM":"UTC","ELEMENT_SET_NO":"999","ARG_OF_PERICENTER":"71.8132","MEAN_ANOMALY":"288.3038"},{"PERIOD":"95.592","SEMIMAJOR_AXIS":"6925.343","COUNTRY_CODE":"US","BSTAR":"-0.00006630300000","EPOCH":"2021-10-18T05:52:34.533696","CENTER_NAME":"EARTH","LAUNCH_DATE":"2021-03-04","RA_OF_ASC_NODE":"204.7669","PERIAPSIS":"545.919","MEAN_ELEMENT_THEORY":"SGP4","FILE":"3170121","SITE":"AFETR","MEAN_MOTION_DDOT":"0.0000000000000","MEAN_MOTION_DOT":"-0.00001269","GP_ID":"187503558","ECCENTRICITY":"0.00018610","OBJECT_TYPE":"PAYLOAD","OBJECT_NAME":"STARLINK-2172","EPHEMERIS_TYPE":"0","REF_FRAME":"TEME","MEAN_MOTION":"15.06401932","CLASSIFICATION_TYPE":"U","NORAD_CAT_ID":"47755","ELEMENT_SET_NO":"999","TIME_SYSTEM":"UTC","ARG_OF_PERICENTER":"73.9485","MEAN_ANOMALY":"286.1709","OBJECT_ID":"2021-017AK","REV_AT_EPOCH":"3612","INCLINATION":"53.0574","DECAY_DATE":null,"RCS_SIZE":"LARGE","APOAPSIS":"548.496","TLE_LINE2":"2 47755  53.0574 204.7669 0001861  73.9485 286.1709 15.06401932 36126","TLE_LINE1":"1 47755U 21017AK  21291.24484414 -.00001269  00000-0 -66303-4 0  9997"},{"RCS_SIZE":"LARGE","DECAY_DATE":null,"INCLINATION":"53.0558","REV_AT_EPOCH":"3609","OBJECT_ID":"2021-017AL","TLE_LINE1":"1 47756U 21017AL  21291.18820266  .00003249  00000-0  23688-3 0  9996","TLE_LINE2":"2 47756  53.0558 210.0156 0001545  69.1525 290.9629 15.06410109 36097","APOAPSIS":"548.253","NORAD_CAT_ID":"47756","CLASSIFICATION_TYPE":"U","ARG_OF_PERICENTER":"69.1525","MEAN_ANOMALY":"290.9629","TIME_SYSTEM":"UTC","ELEMENT_SET_NO":"999","GP_ID":"187504310","ECCENTRICITY":"0.00015450","MEAN_MOTION_DDOT":"0.0000000000000","MEAN_MOTION_DOT":"0.00003249","SITE":"AFETR","FILE":"3170121","MEAN_MOTION":"15.06410109","REF_FRAME":"TEME","EPHEMERIS_TYPE":"0","OBJECT_NAME":"STARLINK-2174","OBJECT_TYPE":"PAYLOAD","BSTAR":"0.00023688000000","EPOCH":"2021-10-18T04:31:00.709824","COUNTRY_CODE":"US","PERIOD":"95.591","SEMIMAJOR_AXIS":"6925.318","MEAN_ELEMENT_THEORY":"SGP4","RA_OF_ASC_NODE":"210.0156","PERIAPSIS":"546.113","LAUNCH_DATE":"2021-03-04","CENTER_NAME":"EARTH"},{"APOAPSIS":"548.445","TLE_LINE2":"2 47757  53.0564 208.5883 0001778  68.7951 291.3228 15.06400027 36087","TLE_LINE1":"1 47757U 21017AM  21291.50520687  .00001781  00000-0  13847-3 0  9992","OBJECT_ID":"2021-017AM","REV_AT_EPOCH":"3608","INCLINATION":"53.0564","DECAY_DATE":null,"RCS_SIZE":"LARGE","TIME_SYSTEM":"UTC","ELEMENT_SET_NO":"999","ARG_OF_PERICENTER":"68.7951","MEAN_ANOMALY":"291.3228","CLASSIFICATION_TYPE":"U","NORAD_CAT_ID":"47757","OBJECT_TYPE":"PAYLOAD","OBJECT_NAME":"STARLINK-2175","EPHEMERIS_TYPE":"0","REF_FRAME":"TEME","MEAN_MOTION":"15.06400027","FILE":"3170620","SITE":"AFETR","MEAN_MOTION_DDOT":"0.0000000000000","MEAN_MOTION_DOT":"0.00001781","GP_ID":"187536199","ECCENTRICITY":"0.00017780","CENTER_NAME":"EARTH","LAUNCH_DATE":"2021-03-04","RA_OF_ASC_NODE":"208.5883","PERIAPSIS":"545.982","MEAN_ELEMENT_THEORY":"SGP4","SEMIMAJOR_AXIS":"6925.348","PERIOD":"95.592","COUNTRY_CODE":"US","BSTAR":"0.00013847000000","EPOCH":"2021-10-18T12:07:29.873568"},{"TIME_SYSTEM":"UTC","ELEMENT_SET_NO":"999","MEAN_ANOMALY":"50.4597","ARG_OF_PERICENTER":"309.5808","CLASSIFICATION_TYPE":"U","NORAD_CAT_ID":"47758","APOAPSIS":"551.757","TLE_LINE2":"2 47758  53.0573 208.5766 0006602 309.5808  50.4597 15.06409264 36148","TLE_LINE1":"1 47758U 21017AN  21291.50886451  .00001289  00000-0  10546-3 0  9993","REV_AT_EPOCH":"3614","OBJECT_ID":"2021-017AN","INCLINATION":"53.0573","DECAY_DATE":null,"RCS_SIZE":"LARGE","CENTER_NAME":"EARTH","LAUNCH_DATE":"2021-03-04","PERIAPSIS":"542.613","RA_OF_ASC_NODE":"208.5766","MEAN_ELEMENT_THEORY":"SGP4","PERIOD":"95.592","SEMIMAJOR_AXIS":"6925.320","COUNTRY_CODE":"US","EPOCH":"2021-10-18T12:12:45.893664","BSTAR":"0.00010546000000","OBJECT_TYPE":"PAYLOAD","OBJECT_NAME":"STARLINK-2176","EPHEMERIS_TYPE":"0","REF_FRAME":"TEME","MEAN_MOTION":"15.06409264","FILE":"3170620","SITE":"AFETR","MEAN_MOTION_DDOT":"0.0000000000000","MEAN_MOTION_DOT":"0.00001289","ECCENTRICITY":"0.00066020","GP_ID":"187536449"},{"NORAD_CAT_ID":"47759","CLASSIFICATION_TYPE":"U","ARG_OF_PERICENTER":"95.6608","MEAN_ANOMALY":"264.4532","TIME_SYSTEM":"UTC","ELEMENT_SET_NO":"999","INCLINATION":"53.0550","DECAY_DATE":null,"RCS_SIZE":"LARGE","REV_AT_EPOCH":"3635","OBJECT_ID":"2021-017AP","TLE_LINE2":"2 47759  53.0550 192.3253 0001190  95.6608 264.4532 15.42210580 36353","TLE_LINE1":"1 47759U 21017AP  21291.45451151  .00019280  00000-0  45059-3 0  9990","APOAPSIS":"440.400","COUNTRY_CODE":"US","BSTAR":"0.00045059000000","EPOCH":"2021-10-18T10:54:29.794464","PERIOD":"93.372","SEMIMAJOR_AXIS":"6817.724","PERIAPSIS":"438.777","RA_OF_ASC_NODE":"192.3253","MEAN_ELEMENT_THEORY":"SGP4","CENTER_NAME":"EARTH","LAUNCH_DATE":"2021-03-04","MEAN_MOTION_DDOT":"0.0000000000000","MEAN_MOTION_DOT":"0.00019280","ECCENTRICITY":"0.00011900","GP_ID":"187537700","FILE":"3170620","SITE":"AFETR","EPHEMERIS_TYPE":"0","REF_FRAME":"TEME","MEAN_MOTION":"15.42210580","OBJECT_TYPE":"PAYLOAD","OBJECT_NAME":"STARLINK-2177"},{"TIME_SYSTEM":"UTC","ELEMENT_SET_NO":"999","ARG_OF_PERICENTER":"78.6317","MEAN_ANOMALY":"281.4835","CLASSIFICATION_TYPE":"U","NORAD_CAT_ID":"47760","APOAPSIS":"548.211","TLE_LINE1":"1 47760U 21017AQ  21291.27206710  .00002470  00000-0  18462-3 0  9992","TLE_LINE2":"2 47760  53.0551 219.6031 0001452  78.6317 281.4835 15.06402656 35948","OBJECT_ID":"2021-017AQ","REV_AT_EPOCH":"3594","DECAY_DATE":null,"INCLINATION":"53.0551","RCS_SIZE":"LARGE","LAUNCH_DATE":"2021-03-04","CENTER_NAME":"EARTH","RA_OF_ASC_NODE":"219.6031","PERIAPSIS":"546.200","MEAN_ELEMENT_THEORY":"SGP4","PERIOD":"95.592","SEMIMAJOR_AXIS":"6925.340","BSTAR":"0.00018462000000","EPOCH":"2021-10-18T06:31:46.597440","COUNTRY_CODE":"US","OBJECT_TYPE":"PAYLOAD","OBJECT_NAME":"STARLINK-2178","EPHEMERIS_TYPE":"0","REF_FRAME":"TEME","MEAN_MOTION":"15.06402656","FILE":"3170121","SITE":"AFETR","MEAN_MOTION_DOT":"0.00002470","MEAN_MOTION_DDOT":"0.0000000000000","ECCENTRICITY":"0.00014520","GP_ID":"187504810"},{"TLE_LINE1":"1 47761U 21017AR  21291.50149633  .00002602  00000-0  19348-3 0  9990","TLE_LINE2":"2 47761  53.0545 208.6158 0001706  75.0817 285.0361 15.06410447 36096","APOAPSIS":"548.363","DECAY_DATE":null,"INCLINATION":"53.0545","RCS_SIZE":"LARGE","REV_AT_EPOCH":"3609","OBJECT_ID":"2021-017AR","MEAN_ANOMALY":"285.0361","ARG_OF_PERICENTER":"75.0817","ELEMENT_SET_NO":"999","TIME_SYSTEM":"UTC","NORAD_CAT_ID":"47761","CLASSIFICATION_TYPE":"U","REF_FRAME":"TEME","EPHEMERIS_TYPE":"0","MEAN_MOTION":"15.06410447","OBJECT_TYPE":"PAYLOAD","OBJECT_NAME":"STARLINK-2179","MEAN_MOTION_DDOT":"0.0000000000000","MEAN_MOTION_DOT":"0.00002602","GP_ID":"187536699","ECCENTRICITY":"0.00017060","FILE":"3170620","SITE":"AFETR","RA_OF_ASC_NODE":"208.6158","PERIAPSIS":"546.000","MEAN_ELEMENT_THEORY":"SGP4","LAUNCH_DATE":"2021-03-04","CENTER_NAME":"EARTH","EPOCH":"2021-10-18T12:02:09.282912","BSTAR":"0.00019348000000","COUNTRY_CODE":"US","SEMIMAJOR_AXIS":"6925.317","PERIOD":"95.591"}];
